ORBCOMM FM33            
1 25983U 99065D   25328.95803714  .00001558  00000+0  53005-3 0  9997
2 25983  45.0295 314.3723 0006823 164.6071 195.4988 14.40463932359244
ORBCOMM FM36            
1 25984U 99065E   25328.92195488  .00001658  00000+0  58215-3 0  9996
2 25984  45.0399  48.9129 0001268 356.3056   3.7784 14.38636626357568
ORBCOMM FM35            
1 25985U 99065F   25328.60241611  .00001266  00000+0  46550-3 0  9996
2 25985  45.0401  56.7619 0003701 148.9601 211.1467 14.37547736357867
ORBCOMM FM34            
1 25986U 99065G   25328.56845394  .00001191  00000+0  44107-3 0  9993
2 25986  45.0396  57.3852 0002319  89.1191 270.9924 14.37510769357970
ORBCOMM FM38            
1 33060U 08031A   25328.84844777  .00002511  00000+0  33877-3 0  9992
2 33060  48.4396 269.1882 0004877  10.2255 349.8759 14.82149733938574
ORBCOMM FM41            
1 33061U 08031B   25328.90555317  .00002540  00000+0  34584-3 0  9997
2 33061  48.4435 277.2621 0004190 353.4257  46.9071 14.81707185938068
ORBCOMM FM29            
1 33062U 08031C   25328.63179104  .00002522  00000+0  34254-3 0  9998
2 33062  48.4390 286.1646 0005889 352.4891 177.6044 14.81845419937934
ORBCOMM FM39            
1 33063U 08031D   25328.92700668  .00002387  00000+0  33752-3 0  9997
2 33063  48.4405 310.8406 0007086 325.3591  34.6862 14.80298406937609
